*******************************************************************************
Ephemeris / WWW_USER Fri Mar  7 10:37:53 2025 Pasadena, USA      / Horizons    
*******************************************************************************
Target body name: (2018 TC)                       {source: JPL#10}
Center body name: Earth (399)                     {source: DE441}
Center-site name: Mauna Kea
*******************************************************************************
Start time      : A.D. 2018-Dec-24 03:59:00.0000 UT      
Stop  time      : A.D. 2018-Dec-24 16:43:00.0000 UT      
Step-size       : 1 minutes
*******************************************************************************
Target pole/equ : undefined
Target radii    : undefined                                                    
Center geodetic : 204.5278, 19.8260847, 4.21024   {E-lon(deg),Lat(deg),Alt(km)}
Center cylindric: 204.5278, 6006.35451, 2151.0229 {E-lon(deg),Dxy(km),Dz(km)}
Center pole/equ : ITRF93                          {East-longitude positive}
Center radii    : 6378.137, 6378.137, 6356.752 km {Equator_a, b, pole_c}       
Target primary  : Sun
Vis. interferer : MOON (R_eq= 1737.400) km        {source: DE441}
Rel. light bend : Sun                             {source: DE441}
Rel. lght bnd GM: 1.3271E+11 km^3/s^2                                          
Small-body perts: Yes                             {source: SB441-N16}
Atmos refraction: NO (AIRLESS)
RA format       : HMS
Time format     : CAL 
Calendar mode   : Mixed Julian/Gregorian
RTS-only print  : NO       
EOP file        : eop.250306.p250602                                           
EOP coverage    : DATA-BASED 1962-JAN-20 TO 2025-MAR-06. PREDICTS-> 2025-JUN-01
Units conversion: 1 au= 149597870.700 km, c= 299792.458 km/s, 1 day= 86400.0 s 
Table cut-offs 1: Elevation (-90.0deg=NO ),Airmass (>38.000=NO), Daylight (YES)
Table cut-offs 2: Solar elongation (  0.0,180.0=NO ),Local Hour Angle( 0.0=NO )
Table cut-offs 3: RA/DEC angular rate (     0.0=NO )                           
*******************************************************************************
Initial IAU76/J2000 heliocentric ecliptic osculating elements (au, days, deg.):
  EPOCH=  2458399.5 ! 2018-Oct-08.00 (TDB)         Residual RMS= .20211        
   EC= .2253304451868516   QR= .9525668516843322   TP= 2458354.2554697809      
   OM= 188.9146441926015   W=  135.2493409557404   IN= 3.631837316097226       
  Equivalent ICRF heliocentric cartesian coordinates (au, au/d):
   X= 9.874490534016482E-01  Y= 2.414303737329446E-01  Z= 9.746991415829437E-02
  VX=-1.955204385424240E-03 VY= 1.722364762632024E-02 VZ= 6.197883797821973E-03
Asteroid physical parameters (km, seconds, rotational period in hours):        
   GM= n.a.                RAD= n.a.               ROTPER= n.a.                
   H= 26.6                 G= .150                 B-V= n.a.                   
                           ALBEDO= n.a.            STYP= n.a.                  
*******************************************************************************
 Date__(UT)__HR:MN     R.A._________(ICRF)_________DEC
******************************************************
$$SOE
 2018-Dec-24 10:08  m  02 48 58.188595 +05 14 57.34686
 2018-Dec-24 10:09  m  02 48 58.235146 +05 14 57.89306
 2018-Dec-24 10:10  m  02 48 58.281717 +05 14 58.43923
 2018-Dec-24 10:11  m  02 48 58.328306 +05 14 58.98537
 2018-Dec-24 10:12  m  02 48 58.374916 +05 14 59.53149
 2018-Dec-24 10:13  m  02 48 58.421545 +05 15 00.07759
 2018-Dec-24 10:14  m  02 48 58.468194 +05 15 00.62366
 2018-Dec-24 10:15  m  02 48 58.514862 +05 15 01.16971
 2018-Dec-24 10:16  m  02 48 58.561551 +05 15 01.71573
 2018-Dec-24 10:17  m  02 48 58.608259 +05 15 02.26173
 2018-Dec-24 10:18  m  02 48 58.654988 +05 15 02.80771
 2018-Dec-24 10:19  m  02 48 58.701736 +05 15 03.35366
 2018-Dec-24 10:20  m  02 48 58.748505 +05 15 03.89959
 2018-Dec-24 10:21  m  02 48 58.795294 +05 15 04.44550
 2018-Dec-24 10:22  m  02 48 58.842104 +05 15 04.99138
 2018-Dec-24 10:23  m  02 48 58.888933 +05 15 05.53724
 2018-Dec-24 10:24  m  02 48 58.935783 +05 15 06.08308
 2018-Dec-24 10:25  m  02 48 58.982654 +05 15 06.62890
 2018-Dec-24 10:26  m  02 48 59.029545 +05 15 07.17469
 2018-Dec-24 10:27  m  02 48 59.076457 +05 15 07.72046
 2018-Dec-24 10:28  m  02 48 59.123390 +05 15 08.26621
 2018-Dec-24 10:29  m  02 48 59.170343 +05 15 08.81194
 2018-Dec-24 10:30  m  02 48 59.217318 +05 15 09.35764
 2018-Dec-24 10:31  m  02 48 59.264313 +05 15 09.90332
 2018-Dec-24 10:32  m  02 48 59.311329 +05 15 10.44898
 2018-Dec-24 10:33  m  02 48 59.358366 +05 15 10.99462
 2018-Dec-24 10:34  m  02 48 59.405425 +05 15 11.54024
 2018-Dec-24 10:35  m  02 48 59.452504 +05 15 12.08584
 2018-Dec-24 10:36  m  02 48 59.499605 +05 15 12.63141
 2018-Dec-24 10:37  m  02 48 59.546727 +05 15 13.17696
 2018-Dec-24 10:38  m  02 48 59.593871 +05 15 13.72250
 2018-Dec-24 10:39  m  02 48 59.641036 +05 15 14.26801
 2018-Dec-24 10:40  m  02 48 59.688223 +05 15 14.81350
 2018-Dec-24 10:41  m  02 48 59.735431 +05 15 15.35897
 2018-Dec-24 10:42  m  02 48 59.782661 +05 15 15.90442
 2018-Dec-24 10:43  m  02 48 59.829912 +05 15 16.44984
 2018-Dec-24 10:44  m  02 48 59.877185 +05 15 16.99525
 2018-Dec-24 10:45  m  02 48 59.924481 +05 15 17.54064
 2018-Dec-24 10:46  m  02 48 59.971798 +05 15 18.08601
 2018-Dec-24 10:47  m  02 49 00.019136 +05 15 18.63136
 2018-Dec-24 10:48  m  02 49 00.066497 +05 15 19.17668
 2018-Dec-24 10:49  m  02 49 00.113881 +05 15 19.72199
 2018-Dec-24 10:50  m  02 49 00.161286 +05 15 20.26728
 2018-Dec-24 10:51  m  02 49 00.208713 +05 15 20.81255
 2018-Dec-24 10:52  m  02 49 00.256163 +05 15 21.35780
 2018-Dec-24 10:53  m  02 49 00.303635 +05 15 21.90303
 2018-Dec-24 10:54  m  02 49 00.351129 +05 15 22.44825
 2018-Dec-24 10:55  m  02 49 00.398646 +05 15 22.99344
 2018-Dec-24 10:56  m  02 49 00.446185 +05 15 23.53861
 2018-Dec-24 10:57  m  02 49 00.493747 +05 15 24.08377
 2018-Dec-24 10:58  m  02 49 00.541331 +05 15 24.62891
 2018-Dec-24 10:59  m  02 49 00.588938 +05 15 25.17403
 2018-Dec-24 11:00  m  02 49 00.636568 +05 15 25.71913
 2018-Dec-24 11:01  m  02 49 00.684221 +05 15 26.26421
 2018-Dec-24 11:02  m  02 49 00.731896 +05 15 26.80927
 2018-Dec-24 11:03  m  02 49 00.779594 +05 15 27.35432
 2018-Dec-24 11:04  m  02 49 00.827315 +05 15 27.89935
 2018-Dec-24 11:05  m  02 49 00.875059 +05 15 28.44436
 2018-Dec-24 11:06  m  02 49 00.922827 +05 15 28.98935
 2018-Dec-24 11:07  m  02 49 00.970617 +05 15 29.53433
 2018-Dec-24 11:08  m  02 49 01.018430 +05 15 30.07929
 2018-Dec-24 11:09  m  02 49 01.066267 +05 15 30.62423
 2018-Dec-24 11:10  m  02 49 01.114127 +05 15 31.16916
 2018-Dec-24 11:11  m  02 49 01.162010 +05 15 31.71407
 2018-Dec-24 11:12  m  02 49 01.209916 +05 15 32.25896
 2018-Dec-24 11:13  m  02 49 01.257846 +05 15 32.80384
 2018-Dec-24 11:14  m  02 49 01.305799 +05 15 33.34870
 2018-Dec-24 11:15  m  02 49 01.353776 +05 15 33.89354
 2018-Dec-24 11:16  m  02 49 01.401777 +05 15 34.43837
 2018-Dec-24 11:17  m  02 49 01.449801 +05 15 34.98318
 2018-Dec-24 11:18  m  02 49 01.497848 +05 15 35.52798
 2018-Dec-24 11:19  m  02 49 01.545919 +05 15 36.07276
 2018-Dec-24 11:20  m  02 49 01.594014 +05 15 36.61752
 2018-Dec-24 11:21  m  02 49 01.642133 +05 15 37.16227
 2018-Dec-24 11:22  m  02 49 01.690276 +05 15 37.70700
 2018-Dec-24 11:23  m  02 49 01.738442 +05 15 38.25172
 2018-Dec-24 11:24  m  02 49 01.786633 +05 15 38.79643
 2018-Dec-24 11:25  m  02 49 01.834847 +05 15 39.34112
 2018-Dec-24 11:26  m  02 49 01.883085 +05 15 39.88579
 2018-Dec-24 11:27  m  02 49 01.931348 +05 15 40.43045
 2018-Dec-24 11:28  m  02 49 01.979634 +05 15 40.97510
 2018-Dec-24 11:29  m  02 49 02.027945 +05 15 41.51973
 2018-Dec-24 11:30  m  02 49 02.076280 +05 15 42.06435
 2018-Dec-24 11:31  m  02 49 02.124639 +05 15 42.60895
 2018-Dec-24 11:32  m  02 49 02.173022 +05 15 43.15354
 2018-Dec-24 11:33  m  02 49 02.221430 +05 15 43.69812
 2018-Dec-24 11:34  m  02 49 02.269861 +05 15 44.24268
 2018-Dec-24 11:35  m  02 49 02.318318 +05 15 44.78723
 2018-Dec-24 11:36  m  02 49 02.366798 +05 15 45.33177
 2018-Dec-24 11:37  m  02 49 02.415304 +05 15 45.87629
 2018-Dec-24 11:38  m  02 49 02.463833 +05 15 46.42080
 2018-Dec-24 11:39  m  02 49 02.512388 +05 15 46.96530
 2018-Dec-24 11:40  m  02 49 02.560966 +05 15 47.50978
 2018-Dec-24 11:41  m  02 49 02.609570 +05 15 48.05425
 2018-Dec-24 11:42  m  02 49 02.658198 +05 15 48.59871
 2018-Dec-24 11:43  m  02 49 02.706851 +05 15 49.14316
 2018-Dec-24 11:44  m  02 49 02.755528 +05 15 49.68760
 2018-Dec-24 11:45  m  02 49 02.804230 +05 15 50.23202
 2018-Dec-24 11:46  m  02 49 02.852957 +05 15 50.77643
 2018-Dec-24 11:47  m  02 49 02.901709 +05 15 51.32083
 2018-Dec-24 11:48  m  02 49 02.950486 +05 15 51.86522
 2018-Dec-24 11:49  m  02 49 02.999288 +05 15 52.40960
 2018-Dec-24 11:50  m  02 49 03.048114 +05 15 52.95397
 2018-Dec-24 11:51  m  02 49 03.096966 +05 15 53.49832
 2018-Dec-24 11:52  m  02 49 03.145842 +05 15 54.04267
 2018-Dec-24 11:53  m  02 49 03.194744 +05 15 54.58700
 2018-Dec-24 11:54  m  02 49 03.243670 +05 15 55.13132
 2018-Dec-24 11:55  m  02 49 03.292622 +05 15 55.67564
 2018-Dec-24 11:56  m  02 49 03.341599 +05 15 56.21994
 2018-Dec-24 11:57  m  02 49 03.390601 +05 15 56.76423
 2018-Dec-24 11:58  m  02 49 03.439628 +05 15 57.30852
 2018-Dec-24 11:59  m  02 49 03.488680 +05 15 57.85279
 2018-Dec-24 12:00  m  02 49 03.537758 +05 15 58.39705
 2018-Dec-24 12:01  m  02 49 03.586861 +05 15 58.94130
 2018-Dec-24 12:02  m  02 49 03.635989 +05 15 59.48555
 2018-Dec-24 12:03  m  02 49 03.685143 +05 16 00.02978
 2018-Dec-24 12:04  m  02 49 03.734321 +05 16 00.57401
 2018-Dec-24 12:05  m  02 49 03.783526 +05 16 01.11823
 2018-Dec-24 12:06  m  02 49 03.832755 +05 16 01.66243
 2018-Dec-24 12:07  m  02 49 03.882010 +05 16 02.20663
 2018-Dec-24 12:08  m  02 49 03.931291 +05 16 02.75083
 2018-Dec-24 12:09  m  02 49 03.980597 +05 16 03.29501
 2018-Dec-24 12:10  m  02 49 04.029928 +05 16 03.83918
